{
  "type": "FeatureCollection",
  "features": [
    {
      "type": "Feature",
      "properties": {
        "norad_id": 64751,
        "name": "PROGRESS-MS 31",
        "group": "stations",
        "lat": -32.08482876092723,
        "lon": 70.60486526098276,
        "alt_km": 419.7191494652734,
        "timestamp": "2025-12-21T05:44:50.324801+00:00",
        "meta_object_name": "PROGRESS-MS 31",
        "meta_object_id": "2025-146A",
        "meta_epoch": "2025-12-20T16:00:06.135552",
        "meta_mean_motion": 15.49686708,
        "meta_eccentricity": 0.00031636,
        "meta_inclination": 51.6321,
        "meta_ra_of_asc_node": 103.2234,
        "meta_arg_of_pericenter": 277.4707,
        "meta_mean_anomaly": 82.5922,
        "meta_ephemeris_type": 0,
        "meta_classification_type": "U",
        "meta_norad_cat_id": 64751,
        "meta_element_set_no": 999,
        "meta_rev_at_epoch": 675,
        "meta_bstar": 0.00013711052,
        "meta_mean_motion_dot": 7.293e-05,
        "meta_mean_motion_ddot": 0,
        "tle_line1": "1 64751U 25146A   25354.66673768  .00007293  00000+0  13711-3 0  9995",
        "tle_line2": "2 64751  51.6321 103.2234 0003163 277.4707  82.5922 15.49686708  6755"
      },
      "geometry": {
        "type": "Point",
        "coordinates": [
          70.60486526098276,
          -32.08482876092723
        ]
      }
    },
    {
      "type": "Feature",
      "properties": {
        "norad_id": 64786,
        "name": "TIANZHOU-9",
        "group": "stations",
        "lat": 24.048637377657634,
        "lon": -4.556577570880802,
        "alt_km": 383.0072213026833,
        "timestamp": "2025-12-21T05:44:50.324811+00:00",
        "meta_object_name": "TIANZHOU-9",
        "meta_object_id": "2025-149A",
        "meta_epoch": "2025-12-20T23:26:14.890272",
        "meta_mean_motion": 15.59514827,
        "meta_eccentricity": 0.00077445,
        "meta_inclination": 41.4685,
        "meta_ra_of_asc_node": 326.6888,
        "meta_arg_of_pericenter": 103.1948,
        "meta_mean_anomaly": 256.9755,
        "meta_ephemeris_type": 0,
        "meta_classification_type": "U",
        "meta_norad_cat_id": 64786,
        "meta_element_set_no": 999,
        "meta_rev_at_epoch": 25530,
        "meta_bstar": 0.00017446348,
        "meta_mean_motion_dot": 0.00013949,
        "meta_mean_motion_ddot": 0,
        "tle_line1": "1 64786U 25149A   25354.97656123  .00013949  00000+0  17446-3 0  9990",
        "tle_line2": "2 64786  41.4685 326.6888 0007744 103.1948 256.9755 15.59514827255301"
      },
      "geometry": {
        "type": "Point",
        "coordinates": [
          -4.556577570880802,
          24.048637377657634
        ]
      }
    },
    {
      "type": "Feature",
      "properties": {
        "norad_id": 65077,
        "name": "CREW DRAGON 11",
        "group": "stations",
        "lat": -32.08482788236571,
        "lon": 70.60486637698038,
        "alt_km": 419.7191494424287,
        "timestamp": "2025-12-21T05:44:50.324821+00:00",
        "meta_object_name": "CREW DRAGON 11",
        "meta_object_id": "2025-166A",
        "meta_epoch": "2025-12-20T16:00:06.135552",
        "meta_mean_motion": 15.49686708,
        "meta_eccentricity": 0.00031636,
        "meta_inclination": 51.6321,
        "meta_ra_of_asc_node": 103.2234,
        "meta_arg_of_pericenter": 277.4707,
        "meta_mean_anomaly": 82.5922,
        "meta_ephemeris_type": 0,
        "meta_classification_type": "U",
        "meta_norad_cat_id": 65077,
        "meta_element_set_no": 999,
        "meta_rev_at_epoch": 214,
        "meta_bstar": 0.00013711052,
        "meta_mean_motion_dot": 7.293e-05,
        "meta_mean_motion_ddot": 0,
        "tle_line1": "1 65077U 25166A   25354.66673768  .00007293  00000+0  13711-3 0  9999",
        "tle_line2": "2 65077  51.6321 103.2234 0003163 277.4707  82.5922 15.49686708  2146"
      },
      "geometry": {
        "type": "Point",
        "coordinates": [
          70.60486637698038,
          -32.08482788236571
        ]
      }
    },
    {
      "type": "Feature",
      "properties": {
        "norad_id": 65304,
        "name": "DRAGON CRS-33",
        "group": "stations",
        "lat": -32.08482744308519,
        "lon": 70.60486693497889,
        "alt_km": 419.71914943100455,
        "timestamp": "2025-12-21T05:44:50.324831+00:00",
        "meta_object_name": "DRAGON CRS-33",
        "meta_object_id": "2025-186A",
        "meta_epoch": "2025-12-20T16:00:06.135552",
        "meta_mean_motion": 15.49686708,
        "meta_eccentricity": 0.00031636,
        "meta_inclination": 51.6321,
        "meta_ra_of_asc_node": 103.2234,
        "meta_arg_of_pericenter": 277.4707,
        "meta_mean_anomaly": 82.5922,
        "meta_ephemeris_type": 0,
        "meta_classification_type": "U",
        "meta_norad_cat_id": 65304,
        "meta_element_set_no": 999,
        "meta_rev_at_epoch": 11,
        "meta_bstar": 0.00013711052,
        "meta_mean_motion_dot": 7.293e-05,
        "meta_mean_motion_ddot": 0,
        "tle_line1": "1 65304U 25186A   25354.66673768  .00007293  00000+0  13711-3 0  9994",
        "tle_line2": "2 65304  51.6321 103.2234 0003163 277.4707  82.5922 15.49686708   114"
      },
      "geometry": {
        "type": "Point",
        "coordinates": [
          70.60486693497889,
          -32.08482744308519
        ]
      }
    },
    {
      "type": "Feature",
      "properties": {
        "norad_id": 65586,
        "name": "PROGRESS-MS 32",
        "group": "stations",
        "lat": -32.08482700380386,
        "lon": 70.6048674929784,
        "alt_km": 419.7191494195813,
        "timestamp": "2025-12-21T05:44:50.324841+00:00",
        "meta_object_name": "PROGRESS-MS 32",
        "meta_object_id": "2025-204A",
        "meta_epoch": "2025-12-20T16:00:06.135552",
        "meta_mean_motion": 15.49686708,
        "meta_eccentricity": 0.00031636,
        "meta_inclination": 51.6321,
        "meta_ra_of_asc_node": 103.2234,
        "meta_arg_of_pericenter": 277.4707,
        "meta_mean_anomaly": 82.5922,
        "meta_ephemeris_type": 0,
        "meta_classification_type": "U",
        "meta_norad_cat_id": 65586,
        "meta_element_set_no": 999,
        "meta_rev_at_epoch": 27,
        "meta_bstar": 0.00013711052,
        "meta_mean_motion_dot": 7.293e-05,
        "meta_mean_motion_ddot": 0,
        "tle_line1": "1 65586U 25204A   25354.66673768  .00007293  00000+0  13711-3 0  9997",
        "tle_line2": "2 65586  51.6321 103.2234 0003163 277.4707  82.5922 15.49686708   273"
      },
      "geometry": {
        "type": "Point",
        "coordinates": [
          70.6048674929784,
          -32.08482700380386
        ]
      }
    },
    {
      "type": "Feature",
      "properties": {
        "norad_id": 65616,
        "name": "CYGNUS NG-23",
        "group": "stations",
        "lat": -32.0848265645231,
        "lon": 70.60486805097717,
        "alt_km": 419.71914940815986,
        "timestamp": "2025-12-21T05:44:50.324851+00:00",
        "meta_object_name": "CYGNUS NG-23",
        "meta_object_id": "2025-208A",
        "meta_epoch": "2025-12-20T16:00:06.135552",
        "meta_mean_motion": 15.49686708,
        "meta_eccentricity": 0.00031636,
        "meta_inclination": 51.6321,
        "meta_ra_of_asc_node": 103.2234,
        "meta_arg_of_pericenter": 277.4707,
        "meta_mean_anomaly": 82.5922,
        "meta_ephemeris_type": 0,
        "meta_classification_type": "U",
        "meta_norad_cat_id": 65616,
        "meta_element_set_no": 999,
        "meta_rev_at_epoch": 22,
        "meta_bstar": 0.00013711052,
        "meta_mean_motion_dot": 7.293e-05,
        "meta_mean_motion_ddot": 0,
        "tle_line1": "1 65616U 25208A   25354.66673768  .00007293  00000+0  13711-3 0  9995",
        "tle_line2": "2 65616  51.6321 103.2234 0003163 277.4707  82.5922 15.49686708   222"
      },
      "geometry": {
        "type": "Point",
        "coordinates": [
          70.60486805097717,
          -32.0848265645231
        ]
      }
    },
    {
      "type": "Feature",
      "properties": {
        "norad_id": 65729,
        "name": "DRAGONFLY",
        "group": "stations",
        "lat": -41.46760297909801,
        "lon": 47.695532755801224,
        "alt_km": 345.37386375787446,
        "timestamp": "2025-12-21T05:44:50.324861+00:00",
        "meta_object_name": "DRAGONFLY",
        "meta_object_id": "1998-067XH",
        "meta_epoch": "2025-12-20T11:42:45.439488",
        "meta_mean_motion": 15.74448787,
        "meta_eccentricity": 0.00074375,
        "meta_inclination": 51.6254,
        "meta_ra_of_asc_node": 96.0114,
        "meta_arg_of_pericenter": 325.9909,
        "meta_mean_anomaly": 34.0612,
        "meta_ephemeris_type": 0,
        "meta_classification_type": "U",
        "meta_norad_cat_id": 65729,
        "meta_element_set_no": 999,
        "meta_rev_at_epoch": 1438,
        "meta_bstar": 0.00098005582,
        "meta_mean_motion_dot": 0.00147536,
        "meta_mean_motion_ddot": 0,
        "tle_line1": "1 65729U 98067XH  25354.48802592  .00147536  00000+0  98006-3 0  9997",
        "tle_line2": "2 65729  51.6254  96.0114 0007437 325.9909  34.0612 15.74448787 14380"
      },
      "geometry": {
        "type": "Point",
        "coordinates": [
          47.695532755801224,
          -41.46760297909801
        ]
      }
    }
  ]
}